start=new Date('2022-03-22T00:00:00.000Z').valueOf();
sats=[{"FILE":"3368836","LAUNCH_DATE":"2020-01-29","OBJECT_ID":"2020-006R","EPHEMERIS_TYPE":"0","SITE":"AFETR","GP_ID":"199345392","PERIOD":"95.592","MEAN_ANOMALY":"288.9446","MEAN_MOTION_DDOT":"0.0000000000000","CLASSIFICATION_TYPE":"U","BSTAR":"0.00009874500000","DECAY_DATE":null,"OBJECT_TYPE":"PAYLOAD","OBJECT_NAME":"STARLINK-1165","TLE_LINE2":"2 45059  53.0548 310.5919 0001371  71.1692 288.9446 15.06401011118095","NORAD_CAT_ID":"45059","ECCENTRICITY":"0.00013710","MEAN_MOTION_DOT":"0.00001190","TIME_SYSTEM":"UTC","TLE_LINE1":"1 45059U 20006R   22080.87831659  .00001190  00000-0  98745-4 0  9998","PERIAPSIS":"546.261","APOAPSIS":"548.160","ARG_OF_PERICENTER":"71.1692","CENTER_NAME":"EARTH","INCLINATION":"53.0548","MEAN_ELEMENT_THEORY":"SGP4","REF_FRAME":"TEME","ELEMENT_SET_NO":"999","REV_AT_EPOCH":"11809","MEAN_MOTION":"15.06401011","RA_OF_ASC_NODE":"310.5919","EPOCH":"2022-03-21T21:04:46.553376","SEMIMAJOR_AXIS":"6925.345","RCS_SIZE":"LARGE","COUNTRY_CODE":"US"},{"RCS_SIZE":"LARGE","COUNTRY_CODE":"US","SEMIMAJOR_AXIS":"6925.544","EPOCH":"2022-03-21T20:59:29.696928","RA_OF_ASC_NODE":"310.6058","MEAN_MOTION":"15.06336246","ELEMENT_SET_NO":"999","REV_AT_EPOCH":"11809","MEAN_ELEMENT_THEORY":"SGP4","REF_FRAME":"TEME","INCLINATION":"53.0552","CENTER_NAME":"EARTH","ARG_OF_PERICENTER":"62.1414","APOAPSIS":"548.786","PERIAPSIS":"546.031","TLE_LINE1":"1 45060U 20006S   22080.87464927  .00019057  00000-0  12970-2 0  9995","TIME_SYSTEM":"UTC","MEAN_MOTION_DOT":"0.00019057","ECCENTRICITY":"0.00019890","NORAD_CAT_ID":"45060","TLE_LINE2":"2 45060  53.0552 310.6058 0001989  62.1414 297.9776 15.06336246118097","OBJECT_NAME":"STARLINK-1166","OBJECT_TYPE":"PAYLOAD","DECAY_DATE":null,"BSTAR":"0.00129700000000","CLASSIFICATION_TYPE":"U","MEAN_MOTION_DDOT":"0.0000000000000","MEAN_ANOMALY":"297.9776","PERIOD":"95.596","GP_ID":"199346642","SITE":"AFETR","EPHEMERIS_TYPE":"0","LAUNCH_DATE":"2020-01-29","OBJECT_ID":"2020-006S","FILE":"3368836"},{"INCLINATION":"53.0530","REF_FRAME":"TEME","MEAN_ELEMENT_THEORY":"SGP4","REV_AT_EPOCH":"11809","ELEMENT_SET_NO":"999","RA_OF_ASC_NODE":"310.5835","MEAN_MOTION":"15.06403412","EPOCH":"2022-03-21T21:10:05.035872","SEMIMAJOR_AXIS":"6925.338","COUNTRY_CODE":"US","RCS_SIZE":"LARGE","TLE_LINE1":"1 45061U 20006T   22080.88200273  .00001617  00000-0  12745-3 0  9993","PERIAPSIS":"546.066","APOAPSIS":"548.340","ARG_OF_PERICENTER":"64.3672","CENTER_NAME":"EARTH","CLASSIFICATION_TYPE":"U","BSTAR":"0.00012745000000","DECAY_DATE":null,"OBJECT_TYPE":"PAYLOAD","OBJECT_NAME":"STARLINK-1169","TLE_LINE2":"2 45061  53.0530 310.5835 0001642  64.3672 295.7487 15.06403412118097","NORAD_CAT_ID":"45061","ECCENTRICITY":"0.00016420","MEAN_MOTION_DOT":"0.00001617","TIME_SYSTEM":"UTC","FILE":"3368836","LAUNCH_DATE":"2020-01-29","OBJECT_ID":"2020-006T","EPHEMERIS_TYPE":"0","SITE":"AFETR","GP_ID":"199346394","PERIOD":"95.592","MEAN_ANOMALY":"295.7487","MEAN_MOTION_DDOT":"0.0000000000000"},{"FILE":"3368836","GP_ID":"199345641","PERIOD":"95.592","MEAN_ANOMALY":"294.9802","MEAN_MOTION_DDOT":"0.0000000000000","OBJECT_ID":"2020-006U","LAUNCH_DATE":"2020-01-29","EPHEMERIS_TYPE":"0","SITE":"AFETR","OBJECT_NAME":"STARLINK-1171","CLASSIFICATION_TYPE":"U","BSTAR":"-0.00005875800000","DECAY_DATE":null,"OBJECT_TYPE":"PAYLOAD","NORAD_CAT_ID":"45062","ECCENTRICITY":"0.00015310","MEAN_MOTION_DOT":"-0.00001157","TIME_SYSTEM":"UTC","TLE_LINE2":"2 45062  53.0540 310.3347 0001531  65.1346 294.9802 15.06396997118102","TLE_LINE1":"1 45062U 20006U   22080.93360850 -.00001157  00000-0 -58758-4 0  9994","PERIAPSIS":"546.162","APOAPSIS":"548.283","CENTER_NAME":"EARTH","ARG_OF_PERICENTER":"65.1346","MEAN_ELEMENT_THEORY":"SGP4","REF_FRAME":"TEME","ELEMENT_SET_NO":"999","REV_AT_EPOCH":"11810","INCLINATION":"53.0540","EPOCH":"2022-03-21T22:24:23.774400","SEMIMAJOR_AXIS":"6925.358","RCS_SIZE":"LARGE","COUNTRY_CODE":"US","MEAN_MOTION":"15.06396997","RA_OF_ASC_NODE":"310.3347"},{"ARG_OF_PERICENTER":"76.2882","CENTER_NAME":"EARTH","TLE_LINE1":"1 45064U 20006W   22080.88016380  .00000611  00000-0  59890-4 0  9996","APOAPSIS":"548.211","PERIAPSIS":"546.200","RA_OF_ASC_NODE":"290.5770","MEAN_MOTION":"15.06402504","EPOCH":"2022-03-21T21:07:26.152320","COUNTRY_CODE":"US","RCS_SIZE":"LARGE","SEMIMAJOR_AXIS":"6925.341","INCLINATION":"53.0566","MEAN_ELEMENT_THEORY":"SGP4","REF_FRAME":"TEME","ELEMENT_SET_NO":"999","REV_AT_EPOCH":"11837","OBJECT_ID":"2020-006W","LAUNCH_DATE":"2020-01-29","SITE":"AFETR","EPHEMERIS_TYPE":"0","PERIOD":"95.592","GP_ID":"199345891","MEAN_MOTION_DDOT":"0.0000000000000","MEAN_ANOMALY":"283.8269","FILE":"3368836","TLE_LINE2":"2 45064  53.0566 290.5770 0001452  76.2882 283.8269 15.06402504118376","ECCENTRICITY":"0.00014520","NORAD_CAT_ID":"45064","TIME_SYSTEM":"UTC","MEAN_MOTION_DOT":"0.00000611","CLASSIFICATION_TYPE":"U","OBJECT_TYPE":"PAYLOAD","DECAY_DATE":null,"BSTAR":"0.00005989000000","OBJECT_NAME":"STARLINK-1133"},{"FILE":"3368836","EPHEMERIS_TYPE":"0","SITE":"AFETR","OBJECT_ID":"2020-006X","LAUNCH_DATE":"2020-01-29","MEAN_ANOMALY":"292.3930","MEAN_MOTION_DDOT":"0.0000000000000","GP_ID":"199346144","PERIOD":"95.592","DECAY_DATE":null,"BSTAR":"0.00005649000000","OBJECT_TYPE":"PAYLOAD","CLASSIFICATION_TYPE":"U","OBJECT_NAME":"STARLINK-1139","TLE_LINE2":"2 45065  53.0536 290.5689 0001258  67.7192 292.3930 15.06401048118378","MEAN_MOTION_DOT":"0.00000560","TIME_SYSTEM":"UTC","NORAD_CAT_ID":"45065","ECCENTRICITY":"0.00012580","PERIAPSIS":"546.339","APOAPSIS":"548.082","TLE_LINE1":"1 45065U 20006X   22080.88384537  .00000560  00000-0  56490-4 0  9995","ARG_OF_PERICENTER":"67.7192","CENTER_NAME":"EARTH","INCLINATION":"53.0536","ELEMENT_SET_NO":"999","REV_AT_EPOCH":"11837","MEAN_ELEMENT_THEORY":"SGP4","REF_FRAME":"TEME","MEAN_MOTION":"15.06401048","RA_OF_ASC_NODE":"290.5689","SEMIMAJOR_AXIS":"6925.345","RCS_SIZE":"LARGE","COUNTRY_CODE":"US","EPOCH":"2022-03-21T21:12:44.239968"},{"PERIAPSIS":"546.177","APOAPSIS":"548.179","TLE_LINE1":"1 45066U 20006Y   22080.85804320  .00000543  00000-0  55306-4 0  9996","CENTER_NAME":"EARTH","ARG_OF_PERICENTER":"59.9874","REV_AT_EPOCH":"11836","ELEMENT_SET_NO":"999","REF_FRAME":"TEME","MEAN_ELEMENT_THEORY":"SGP4","INCLINATION":"53.0545","SEMIMAJOR_AXIS":"6925.313","RCS_SIZE":"LARGE","COUNTRY_CODE":"US","EPOCH":"2022-03-21T20:35:34.932480","MEAN_MOTION":"15.06411596","RA_OF_ASC_NODE":"290.6886","FILE":"3368836","MEAN_ANOMALY":"300.1258","MEAN_MOTION_DDOT":"0.0000000000000","GP_ID":"199346893","PERIOD":"95.591","EPHEMERIS_TYPE":"0","SITE":"AFETR","LAUNCH_DATE":"2020-01-29","OBJECT_ID":"2020-006Y","OBJECT_NAME":"STARLINK-1145","BSTAR":"0.00005530600000","DECAY_DATE":null,"OBJECT_TYPE":"PAYLOAD","CLASSIFICATION_TYPE":"U","MEAN_MOTION_DOT":"0.00000543","TIME_SYSTEM":"UTC","NORAD_CAT_ID":"45066","ECCENTRICITY":"0.00014450","TLE_LINE2":"2 45066  53.0545 290.6886 0001445  59.9874 300.1258 15.06411596118366"},{"OBJECT_NAME":"STARLINK-1150","CLASSIFICATION_TYPE":"U","DECAY_DATE":null,"BSTAR":"-0.00004723500000","OBJECT_TYPE":"PAYLOAD","NORAD_CAT_ID":"45067","ECCENTRICITY":"0.00014430","MEAN_MOTION_DOT":"-0.00000985","TIME_SYSTEM":"UTC","TLE_LINE2":"2 45067  53.0542 290.5979 0001443  74.5311 285.5837 15.06406714118379","FILE":"3368836","GP_ID":"199345143","PERIOD":"95.592","MEAN_ANOMALY":"285.5837","MEAN_MOTION_DDOT":"0.0000000000000","LAUNCH_DATE":"2020-01-29","OBJECT_ID":"2020-006Z","EPHEMERIS_TYPE":"0","SITE":"AFETR","MEAN_ELEMENT_THEORY":"SGP4","REF_FRAME":"TEME","REV_AT_EPOCH":"11837","ELEMENT_SET_NO":"999","INCLINATION":"53.0542","EPOCH":"2022-03-21T20:56:49.420608","SEMIMAJOR_AXIS":"6925.328","RCS_SIZE":"LARGE","COUNTRY_CODE":"US","MEAN_MOTION":"15.06406714","RA_OF_ASC_NODE":"290.5979","TLE_LINE1":"1 45067U 20006Z   22080.87279422 -.00000985  00000-0 -47235-4 0  9992","PERIAPSIS":"546.194","APOAPSIS":"548.192","CENTER_NAME":"EARTH","ARG_OF_PERICENTER":"74.5311"},{"ARG_OF_PERICENTER":"82.0239","CENTER_NAME":"EARTH","APOAPSIS":"548.167","PERIAPSIS":"546.222","TLE_LINE1":"1 45068U 20006AA  22080.84605157 -.00000598  00000-0 -21269-4 0  9997","MEAN_MOTION":"15.06406259","RA_OF_ASC_NODE":"290.5753","COUNTRY_CODE":"US","RCS_SIZE":"LARGE","SEMIMAJOR_AXIS":"6925.329","EPOCH":"2022-03-21T20:18:18.855648","INCLINATION":"53.0564","ELEMENT_SET_NO":"999","REV_AT_EPOCH":"11836","MEAN_ELEMENT_THEORY":"SGP4","REF_FRAME":"TEME","SITE":"AFETR","EPHEMERIS_TYPE":"0","LAUNCH_DATE":"2020-01-29","OBJECT_ID":"2020-006AA","MEAN_MOTION_DDOT":"0.0000000000000","MEAN_ANOMALY":"278.0910","PERIOD":"95.592","GP_ID":"199345393","FILE":"3368836","TLE_LINE2":"2 45068  53.0564 290.5753 0001404  82.0239 278.0910 15.06406259118366","TIME_SYSTEM":"UTC","MEAN_MOTION_DOT":"-0.00000598","ECCENTRICITY":"0.00014040","NORAD_CAT_ID":"45068","OBJECT_TYPE":"PAYLOAD","DECAY_DATE":null,"BSTAR":"-0.00002126900000","CLASSIFICATION_TYPE":"U","OBJECT_NAME":"STARLINK-1161"},{"TLE_LINE2":"2 45071  53.0541 290.7690 0001573  72.8276 287.2885 15.06409753118367","ECCENTRICITY":"0.00015730","NORAD_CAT_ID":"45071","TIME_SYSTEM":"UTC","MEAN_MOTION_DOT":"0.00003860","CLASSIFICATION_TYPE":"U","OBJECT_TYPE":"PAYLOAD","BSTAR":"0.00027783000000","DECAY_DATE":null,"OBJECT_NAME":"STARLINK-1167","OBJECT_ID":"2020-006AD","LAUNCH_DATE":"2020-01-29","SITE":"AFETR","EPHEMERIS_TYPE":"0","PERIOD":"95.592","GP_ID":"199346643","MEAN_MOTION_DDOT":"0.0000000000000","MEAN_ANOMALY":"287.2885","FILE":"3368836","MEAN_MOTION":"15.06409753","RA_OF_ASC_NODE":"290.7690","EPOCH":"2022-03-21T20:09:02.636640","COUNTRY_CODE":"US","RCS_SIZE":"LARGE","SEMIMAJOR_AXIS":"6925.319","INCLINATION":"53.0541","MEAN_ELEMENT_THEORY":"SGP4","REF_FRAME":"TEME","REV_AT_EPOCH":"11836","ELEMENT_SET_NO":"999","ARG_OF_PERICENTER":"72.8276","CENTER_NAME":"EARTH","TLE_LINE1":"1 45071U 20006AD  22080.83961385  .00003860  00000-0  27783-3 0  9997","APOAPSIS":"548.273","PERIAPSIS":"546.094"}];
